[{"OBJECT_NAME":"STARLINK-31850","OBJECT_ID":"2024-100U","EPOCH":"2026-03-09T12:24:31.788576","MEAN_MOTION":15.27564513,"ECCENTRICITY":0.00010057,"INCLINATION":42.9977,"RA_OF_ASC_NODE":126.0864,"ARG_OF_PERICENTER":264.5512,"MEAN_ANOMALY":95.5225,"EPHEMERIS_TYPE":0,"CLASSIFICATION_TYPE":"U","NORAD_CAT_ID":59903,"ELEMENT_SET_NO":999,"REV_AT_EPOCH":10107,"BSTAR":6.150559e-6,"MEAN_MOTION_DOT":-9.3e-7,"MEAN_MOTION_DDOT":0},{"OBJECT_NAME":"CP8 (IPEX)","OBJECT_ID":"2013-072K","EPOCH":"2026-03-09T13:09:38.394720","MEAN_MOTION":15.06461805,"ECCENTRICITY":0.0159394,"INCLINATION":120.4656,"RA_OF_ASC_NODE":280.3913,"ARG_OF_PERICENTER":252.2911,"MEAN_ANOMALY":106.0698,"EPHEMERIS_TYPE":0,"CLASSIFICATION_TYPE":"U","NORAD_CAT_ID":39471,"ELEMENT_SET_NO":999,"REV_AT_EPOCH":10021,"BSTAR":0.00057825,"MEAN_MOTION_DOT":0.0001114,"MEAN_MOTION_DDOT":0}]
